[{"OBJECT_NAME":"IRIDE FM2","OBJECT_ID":"2025-276AG","EPOCH":"2026-03-09T22:42:46.282464","MEAN_MOTION":15.18971526,"ECCENTRICITY":0.00034688,"INCLINATION":97.4252,"RA_OF_ASC_NODE":144.1705,"ARG_OF_PERICENTER":20.3269,"MEAN_ANOMALY":339.8103,"EPHEMERIS_TYPE":0,"CLASSIFICATION_TYPE":"U","NORAD_CAT_ID":66696,"ELEMENT_SET_NO":999,"REV_AT_EPOCH":1535,"BSTAR":0.00057867113,"MEAN_MOTION_DOT":0.00012043,"MEAN_MOTION_DDOT":0},{"OBJECT_NAME":"KUIPER-00183","OBJECT_ID":"2025-301F","EPOCH":"2026-03-09T22:00:01.999584","MEAN_MOTION":15.28555387,"ECCENTRICITY":0.00143222,"INCLINATION":51.8667,"RA_OF_ASC_NODE":65.0366,"ARG_OF_PERICENTER":58.1585,"MEAN_ANOMALY":99.3056,"EPHEMERIS_TYPE":0,"CLASSIFICATION_TYPE":"U","NORAD_CAT_ID":67138,"ELEMENT_SET_NO":999,"REV_AT_EPOCH":583,"BSTAR":-0.054814766,"MEAN_MOTION_DOT":-0.01408357,"MEAN_MOTION_DDOT":0}]
